[Satellite]
VERSION=1.1
NAME=Curium One
NICKNAME=Curium One
TLE1=1 60242U 24128H   25178.84122703  .00005091  00000-0  35746-3 0  9994
TLE2=2 60242  61.9822  13.9009 0053234  57.8534 302.7707 15.05341806 52988
STATUS=0
